OBJECT_NAME,OBJECT_ID,EPOCH,MEAN_MOTION,ECCENTRICITY,INCLINATION,RA_OF_ASC_NODE,ARG_OF_PERICENTER,MEAN_ANOMALY,EPHEMERIS_TYPE,CLASSIFICATION_TYPE,NORAD_CAT_ID,ELEMENT_SET_NO,REV_AT_EPOCH,BSTAR,MEAN_MOTION_DOT,MEAN_MOTION_DDOT
GSAT0225 (GALILEO 29),2024-079A,2026-07-11T03:00:37.387008,1.70473636,.0000654,55.1331,100.4115,323.3277,193.7943,0,U,59598,999,1372,0,-.28E-6,0
GSAT0227 (GALILEO 30),2024-079C,2026-07-06T22:43:23.740320,1.70473885,.00026347,55.1260,100.5264,63.1115,296.9336,0,U,59600,999,1370,0,-.3E-7,0
GSAT0232 (GALILEO 32),2024-167A,2026-07-10T03:16:33.487680,1.70473966,.00064707,55.1805,220.6842,230.0654,143.1873,0,U,61182,999,1127,0,.9E-6,0
GSAT0226 (GALILEO 31),2024-167B,2026-07-09T14:12:03.560832,1.70473943,.0003197,55.1797,220.7062,233.2505,256.9851,0,U,61183,999,1123,0,.89E-6,0
BEIDOU-3 M25 (C47),2024-168B,2026-07-09T11:28:39.547200,1.86229902,.0003287,54.4524,301.4683,292.5034,70.4681,0,U,61186,999,1220,0,-.67E-6,0
BEIDOU-3 M27 (C49),2024-168C,2026-07-11T03:07:04.077984,1.86229880,.0000989,54.4462,301.3933,49.5976,115.7666,0,U,61187,999,970,0,-.67E-6,0
GPS BIII-7  (PRN 01),2024-242A,2026-07-10T06:31:48.129312,2.00571820,.00177722,54.8387,333.2464,3.9598,354.1894,0,U,62339,999,1171,0,-.82E-6,0
QZS-6 (QZSS/PRN 200),2025-023A,2026-07-11T02:00:42.060096,1.00268136,.00018,0.0203,321.8187,169.2928,278.5424,0,U,62876,999,518,0,-.225E-5,0
COSMOS 2584 (704K),2025-042A,2026-07-08T06:09:53.153280,2.13103813,.0005748,65.0959,72.0857,218.1439,141.8762,0,U,63130,999,1049,0,-.24E-6,0
GPS BIII-8  (PRN 21),2025-116A,2026-07-11T00:20:42.001728,2.00573912,.0008254,55.2530,30.1727,339.5275,17.7171,0,U,64202,999,834,0,-.54E-6,0
COSMOS 2596 (708K),2025-206B,2026-07-09T12:13:03.387936,2.13100694,.00111636,64.6203,314.2090,308.0791,48.6851,0,U,65590,999,638,0,-.59E-6,0
GSAT0233 (GALILEO 33),2025-302A,2026-07-08T17:37:03.024192,1.70473891,.00008585,54.3473,101.5178,172.7787,247.6086,0,U,67160,999,349,0,-.12E-6,0
GSAT0234 (GALILEO 34),2025-302C,2026-07-10T09:29:34.876320,1.70473808,.00021804,54.3501,101.4692,319.2109,220.9694,0,U,67162,999,357,0,-.24E-6,0
GPS BIII-9  (PRN 20),2026-017A,2026-07-10T03:08:51.550080,2.00570566,.00215692,55.1027,87.8344,259.7592,100.0304,0,U,67588,999,43207,0,-.37E-6,0
GPS BIII-10 (PRN 13),2026-087A,2026-07-10T20:21:11.721312,2.00572167,.0020514,54.9620,206.8521,106.5165,256.5971,0,U,68791,999,131,0,.111E-5,0
